COSMOS 1892             
1 18421U 87088A   19215.61488194  .00000079  00000-0  22912-5 0  9993
2 18421  82.4984 229.0241 0016945  93.2281 267.0891 15.16869434736212
SL-14 R/B               
1 18749U 88001B   19216.19598149  .00000072  00000-0  59152-5 0  9997
2 18749  82.5152 295.8867 0017204 266.7433 152.7617 14.83193022705794
COSMOS 1933             
1 18958U 88020A   19216.10609895 -.00000126  00000-0 -11324-4 0  9992
2 18958  82.5282  72.9818 0012332 149.4501 210.7446 15.03614280708414
SL-3 R/B                
1 19046U 88032B   19216.15746345  .00000343  00000-0  29865-4 0  9999
2 19046  97.4355 245.7971 0037383 206.7781 153.1516 15.02607283689453
SL-16 R/B               
1 19120U 88039B   19215.88406516 -.00000190  00000-0 -67888-4 0  9990
2 19120  71.0156 121.6669 0019839  73.9506 286.3801 14.19193334616454
COSMOS 1953             
1 19210U 88050A   19215.89653941 -.00000024  00000-0 -37127-5 0  9990
2 19210  82.5185 358.9929 0014577 124.5082 235.7524 15.05811394673725
SL-8 R/B                
1 19257U 88053B   19216.18032997 -.00000091  00000-0 -21549-4 0  9993
2 19257  74.0463 226.1825 0021737 283.3977 144.6155 14.37444082630557
COSMOS 1975             
1 19573U 88093A   19215.77361602 -.00000139  00000-0 -11928-4 0  9993
2 19573  82.5221 312.8069 0014906 163.8665 196.3039 15.04716448655581
SL-14 R/B               
1 19574U 88093B   19215.88914851  .00000064  00000-0  47520-5 0  9999
2 19574  82.5338 137.9321 0023162  73.5625 352.4595 14.83302809643649
SL-16 R/B               
1 19650U 88102B   19216.19193172 -.00000209  00000-0 -81938-4 0  9998
2 19650  70.9980 179.1418 0012044  76.7236 283.5229 14.15781971586115
INTERCOSMOS 24          
1 20261U 89080A   19215.57430721  .00000123  00000-0  26696-4 0  9992
2 20261  82.6035 226.6007 1204183 103.6274 270.1568 12.56092529363554
SL-14 R/B               
1 20262U 89080C   19216.22146908  .00000059  00000-0  17461-4 0  9995
2 20262  82.5940 277.7591 1236015 282.7628  63.8385 12.48919281358838
DELTA 2 R/B(1)          
1 20303U 89085B   19216.41288828  .00000854  00000-0  29989-4 0  9996
2 20303  35.6238 207.1288 0098121 229.9579 129.2507 15.26328704619425
DELTA 1 R/B             
1 20323U 89089B   19215.66063945  .00000026  00000-0  15699-4 0  9993
2 20323  97.0669  48.1228 0072443 153.6030 206.8887 14.48309851567259
DELTA 2 R/B(1)          
1 20362U 89097B   19215.18599887  .00021145  00000-0  12411-3 0  9994
2 20362  35.6017 118.6998 0023788  49.1396  79.2235 15.76872640621484
ARIANE 40 R/B           
1 20443U 90005H   19215.77978386 -.00000010  00000-0  11550-4 0  9998
2 20443  98.6223 272.3213 0009965 205.8075 154.2615 14.38066332546578
DELTA 2 R/B(1)          
1 20453U 90008B   19215.78073897  .00000941  00000-0  55582-4 0  9991
2 20453  35.6256 334.5932 0282460 166.0437 194.8281 14.84951115563793
COSMOS 2058             
1 20465U 90010A   19216.14909326  .00000178  00000-0  12759-4 0  9994
2 20465  82.4876 219.6045 0015198 187.7556 172.3434 14.97891337601782
SL-14 R/B               
1 20466U 90010B   19215.92717440  .00000053  00000-0  38573-5 0  9999
2 20466  82.5039   4.8513 0019242 306.4762  53.4678 14.81360321571571
SL-14 R/B               
1 20511U 90018B   19215.84022980  .00000053  00000-0  38669-5 0  9993
2 20511  82.5249 309.8894 0019021  83.6992  55.7976 14.80016896587082
HST                     
1 20580U 90037B   19216.51208541  .00000322  00000-0  86145-5 0  9995
2 20580  28.4688 262.3375 0002427 269.9890 228.1326 15.09250220407976
SL-16 R/B               
1 20625U 90046B   19215.74486437  .00000282  00000-0  17106-3 0  9995
2 20625  71.0006 317.1525 0014210 357.8427   2.2631 14.14646075507542
COSMOS 2084             
1 20663U 90055A   19216.17453853 -.00000098  00000-0  91518-5 0  9998
2 20663  62.7941 150.8216 0068704 174.6754 185.5086 14.91995522575872
SL-6 R/B(2)             
1 20666U 90055D   19215.87952121 -.00000078  00000-0  10452-4 0  9994
2 20666  62.7865  68.9375 0035218 215.8342 144.0389 14.92258434577750
SL-8 R/B                
1 20775U 90078B   19215.83452501  .00001183  00000-0  54935-4 0  9994
2 20775  82.9288 129.2002 0578626 101.0432 265.6367 14.33415204460081
SL-8 R/B                
1 21088U 91006B   19215.93524757 -.00000014  00000-0 -29071-4 0  9995
2 21088  82.9440 162.0440 0021445 305.5648 114.5907 13.77116851432378
OKEAN-3                 
1 21397U 91039A   19216.27274730  .00000126  00000-0  95854-5 0  9990
2 21397  82.5228 119.1197 0018513 149.8721 210.3569 14.92822055525859
COSMOS 2151             
1 21422U 91042A   19216.18484087  .00000100  00000-0  73029-5 0  9993
2 21422  82.4985 225.9397 0013325 210.5461 149.4984 14.92059658524503
SL-14 R/B               
1 21423U 91042B   19215.77340111  .00000063  00000-0  52820-5 0  9991
2 21423  82.4959 314.7368 0016621 219.4064 140.5941 14.79767474517570
ERS-1                   
1 21574U 91050A   19215.88350236  .00000003  00000-0  15526-4 0  9993
2 21574  98.5521 164.9623 0033414 153.6535 206.6359 14.37703242469345
ARIANE 40 R/B           
1 21610U 91050F   19215.81852101 -.00000008  00000-0  11199-4 0  9993
2 21610  98.5061 282.5256 0004254 125.2562 345.8255 14.40877511472091
INTERCOSMOS 25          
1 21819U 91086A   19215.86171992 -.00000118  00000-0 -25440-4 0  9997
2 21819  82.5977 316.9471 1515026 230.8613 114.7992 12.05033073205919
SL-8 R/B                
1 21876U 92008B   19215.66700206  .00000081  00000-0  67519-4 0  9999
2 21876  82.9251 259.3507 0035306  26.1412  87.8118 13.75637510378040
SL-8 R/B                
1 21938U 92020B   19215.94873775  .00000013  00000-0 -28400-5 0  9998
2 21938  82.9318 143.0502 0028996 179.5326 250.1746 13.75269134369899
COSMOS 2219             
1 22219U 92076A   19215.86463697 -.00000284  00000-0 -12507-3 0  9991
2 22219  71.0608  13.2290 0020743 279.9636  79.9145 14.13638259377795
SL-16 R/B               
1 22220U 92076B   19216.21854875  .00000146  00000-0  97433-4 0  9992
2 22220  70.9978 221.4843 0012586 177.3909 256.7939 14.16443919380949
COSMOS 2221             
1 22236U 92080A   19216.52796165  .00000112  00000-0  95391-5 0  9990
2 22236  82.5064  44.0348 0015302 299.6983  60.2711 14.87844262443040
SL-16 R/B               
1 22285U 92093B   19215.91049842  .00000018  00000-0  33741-4 0  9998
2 22285  71.0227  20.7769 0004059 351.6025   8.5029 14.15037869372270
COSMOS 2228             
1 22286U 92094A   19215.92104405  .00000098  00000-0  79062-5 0  9993
2 22286  82.5212   0.4533 0022516  61.4319 298.9161 14.88058795417077
SL-16 R/B               
1 22566U 93016B   19216.20249054 -.00000211  00000-0 -84162-4 0  9996
2 22566  71.0048 233.7951 0009398  17.0892 343.0545 14.14960745361329
COSMOS 2242             
1 22626U 93024A   19216.06993404  .00000098  00000-0  79297-5 0  9996
2 22626  82.5210  28.3080 0020321  60.8699 299.4549 14.87919320421817
SL-16 R/B               
1 22803U 93059B   19215.91730558 -.00000031  00000-0  86292-5 0  9994
2 22803  70.9905  50.5404 0019483 280.1289  79.7637 14.16812563338189
ARIANE 40 R/B           
1 22830U 93061H   19215.70232005 -.00000041  00000-0  17671-5 0  9994
2 22830  98.8116 256.1023 0011167 170.0158 190.1248 14.31437213349221
COSMOS 2278             
1 23087U 94023A   19215.93218305  .00000106  00000-0  80807-4 0  9991
2 23087  71.0520 173.4156 0007194 113.9781 246.2096 14.13783891304174
SL-16 R/B               
1 23088U 94023B   19216.07271624 -.00000299  00000-0 -13047-3 0  9997
2 23088  70.9987  89.3772 0004107 323.9428  36.1417 14.14678913305556
SL-16 R/B               
1 23343U 94074B   19215.80540017 -.00000005  00000-0  66420-5 0  9991
2 23343  98.0485 265.6989 0008293  95.5747  32.9414 14.76785682331380
SL-16 R/B               
1 23405U 94077B   19215.92368547  .00000276  00000-0  16682-3 0  9994
2 23405  70.9838  20.1944 0004328 242.9716 117.0965 14.15211723275290
ERS-2                   
1 23560U 95021A   19215.89669033  .00000579  00000-0  28674-4 0  9997
2 23560  98.5070 321.8035 0003814 159.2006 200.9383 15.22636370293631
ARIANE 40+ R/B          
1 23561U 95021B   19215.70179439  .00000001  00000-0  15714-4 0  9995
2 23561  98.7636 244.2818 0008001 115.3613 353.1230 14.37930125272762
SL-16 R/B               
1 23705U 95058B   19216.35931486 -.00000191  00000-0 -73812-4 0  9990
2 23705  71.0192 196.3546 0013260 201.5254 158.5313 14.15122582227271
SL-16 R/B               
1 24298U 96051B   19215.47591506  .00000030  00000-0  42839-4 0  9994
2 24298  70.8258 223.0986 0013692 117.0776 243.1743 14.12414633181583
ORBVIEW 2 (SEASTAR)     
1 24883U 97037A   19215.91463307  .00000023  00000-0  24124-4 0  9994
2 24883  98.5885 326.2746 0001841 357.3728   2.7447 14.33513509163074
SL-16 R/B               
1 25400U 98043G   19215.89614645 -.00000018  00000-0  10476-4 0  9998
2 25400  98.5733 153.2780 0009866 177.4785 182.6446 14.25442347 95867
SL-16 R/B               
1 25407U 98045B   19215.41296325 -.00000237  00000-0 -96122-4 0  9992
2 25407  71.0099 208.0848 0005452 106.9545 253.2176 14.15789868 86199
ISS (ZARYA)             
1 25544U 98067A   19216.25866259 -.00000624  00000-0 -26973-5 0  9998
2 25544  51.6446 122.7696 0006302 214.2136 288.3345 15.51020387182715
SL-8 R/B                
1 25723U 99022C   19215.72772997  .00004930  00000-0  51867-4 0  9996
2 25723  48.4137 304.2617 0007661 227.4436 132.5868 15.66184960127581
CZ-4B R/B               
1 25732U 99025C   19216.09878463 -.00000027  00000-0  89245-5 0  9991
2 25732  98.9744 237.0858 0038015  38.7827  29.5107 14.17666182 46856
OKEAN-O                 
1 25860U 99039A   19216.02929676  .00000002  00000-0  79718-5 0  9990
2 25860  98.2260 224.2117 0001570 110.4347 249.7031 14.76615495 78618
SL-16 R/B               
1 25861U 99039B   19215.92362751 -.00000009  00000-0  62156-5 0  9990
2 25861  98.1908 207.0809 0017021 100.0725 314.1470 14.78538484 80551
